OBJECT_NAME,OBJECT_ID,EPOCH,MEAN_MOTION,ECCENTRICITY,INCLINATION,RA_OF_ASC_NODE,ARG_OF_PERICENTER,MEAN_ANOMALY,EPHEMERIS_TYPE,CLASSIFICATION_TYPE,NORAD_CAT_ID,ELEMENT_SET_NO,REV_AT_EPOCH,BSTAR,MEAN_MOTION_DOT,MEAN_MOTION_DDOT
STARLINK-1080,2020-001AZ,2026-05-29T16:32:39.862464,15.66639176,.00015708,53.0462,256.8668,33.0047,327.1065,0,U,44961,999,35327,.51862806E-3,.55225E-3,0
STARLINK-1090,2020-001BG,2026-05-30T03:43:17.157216,15.49245899,.0002698,53.1501,283.3450,316.0279,44.0515,0,U,44968,999,35295,.16529E-2,.92376E-3,0
TJS-5,2020-002A,2026-05-30T00:36:30.002400,1.00270235,.0007339,0.0537,277.0693,127.0406,320.0732,0,U,44978,999,2352,0,-.33E-5,0
JILIN-1 KUANFU 01,2020-003A,2026-05-30T03:16:31.412352,15.10612019,.0009886,97.5038,224.4449,14.8216,345.3302,0,U,45016,999,35260,.25693E-3,.4186E-4,0
YINHE-1,2020-004A,2026-05-30T05:00:03.851424,14.79108626,.0015889,86.3917,123.6150,66.9535,293.3359,0,U,45024,999,34326,.86118E-4,.665E-5,0
GSAT-30,2020-005A,2026-05-30T03:54:51.628320,1.00271662,.0003583,0.0508,124.4809,312.4249,312.5151,0,U,45026,999,2332,0,-.153E-5,0
EUTELSAT KONNECT,2020-005B,2026-05-29T05:18:34.937280,1.00271640,.00007379,0.0720,99.8405,148.3822,85.3843,0,U,45027,999,2414,0,.6E-6,0
STARLINK-1132,2020-006A,2026-05-29T15:27:23.664096,15.54123347,.00029248,53.1522,227.1546,359.5304,0.5704,0,U,45044,999,34947,.10833523E-2,.71782E-3,0
STARLINK-1131,2020-006D,2026-05-29T15:20:35.501856,15.50932943,.00037151,53.1585,259.7990,333.1456,26.9361,0,U,45047,999,34901,.10145349E-2,.59774E-3,0
STARLINK-1134,2020-006E,2026-05-30T04:00:00.491904,15.56024727,.0008187,53.0259,207.5929,31.6906,328.4596,0,U,45048,999,34977,.19156E-2,.137833E-2,0
STARLINK-1156,2020-006L,2026-05-29T14:49:20.833536,15.34150242,.00031483,53.1585,264.3853,328.3109,31.7704,0,U,45054,999,34894,.14502518E-2,.48556E-3,0
STARLINK-1166,2020-006S,2026-05-30T04:20:01.499424,15.57893568,.0004589,53.0462,240.6205,337.5312,22.5497,0,U,45060,999,34931,.14292E-2,.109652E-2,0
STARLINK-1169,2020-006T,2026-05-29T12:59:27.887136,15.37285116,.00038931,53.1554,263.5420,291.5079,68.5509,0,U,45061,999,34895,.14480175E-2,.5367E-3,0
STARLINK-1171,2020-006U,2026-05-29T13:51:42.054048,15.72991776,.0002695,53.0403,210.4691,332.0875,27.9998,0,U,45062,999,34968,.5160758E-3,.71804E-3,0
STARLINK-1133,2020-006W,2026-05-29T15:41:23.315712,15.34163267,.00041419,53.1580,240.9941,338.8746,21.2085,0,U,45064,999,34928,.1398364E-2,.46819E-3,0
STARLINK-1167,2020-006AD,2026-05-29T12:58:12.370944,15.36466461,.00030692,53.1568,240.7469,291.3922,68.6754,0,U,45071,999,34927,.136939E-2,.49373E-3,0
STARLINK-1168,2020-006AE,2026-05-29T15:13:20.613504,15.34277702,.00035605,53.1576,241.2908,341.4873,18.5999,0,U,45072,999,34927,.13829856E-2,.46464E-3,0
STARLINK-1172,2020-006AG,2026-05-30T06:00:02.000160,15.37580846,.0003172,53.1550,236.8180,308.3650,222.9137,0,U,45074,999,577,.18975E-2,.71294E-3,0
STARLINK-1153,2020-006AN,2026-05-29T15:41:33.362304,15.36488209,.00042397,53.1584,240.1294,304.8764,55.1840,0,U,45080,999,34929,.13413218E-2,.48386E-3,0
STARLINK-1151,2020-006AP,2026-05-29T10:32:29.986944,15.76387254,.00041071,53.0483,200.0849,342.7397,17.3482,0,U,45081,999,34981,.58219578E-3,.94299E-3,0
STARLINK-1185,2020-006AV,2026-05-30T04:02:12.767712,15.44891697,.0005495,53.1583,218.3558,349.7261,10.3633,0,U,45087,999,34964,.13678E-2,.65433E-3,0
STARLINK-1183,2020-006AW,2026-05-30T04:46:35.601888,15.34140515,.0004254,53.1588,223.2546,348.4710,11.6195,0,U,45088,999,34957,.1752E-2,.58808E-3,0
STARLINK-1152,2020-006BE,2026-05-30T01:34:39.124704,15.47693886,.0004536,53.0334,179.8156,36.0218,324.1094,0,U,45096,999,35015,.13319E-2,.70224E-3,0
STARLINK-1184,2020-006BG,2026-05-29T13:33:37.765152,15.13829841,.00041306,53.0511,239.0947,12.5375,347.5719,0,U,45098,999,34927,.13902813E-2,.25204E-3,0
STARLINK-1193,2020-006BJ,2026-05-30T02:25:02.174304,15.66925482,.0004237,53.0459,192.6765,316.7735,43.2947,0,U,45100,999,34997,.54115E-3,.58364E-3,0
ONEWEB-0013,2020-008A,2026-05-30T03:17:23.510688,13.09451153,.0002769,87.8527,56.4657,70.1509,289.9916,0,U,45131,999,30370,-.86489E-3,-.285E-5,0
ONEWEB-0017,2020-008B,2026-05-30T03:10:10.661376,13.10377057,.000156,87.8854,39.8636,79.7416,280.3887,0,U,45132,999,30558,.14012E-2,.502E-5,0
ONEWEB-0020,2020-008C,2026-05-30T02:27:07.759296,13.10371697,.0001818,87.8855,39.8674,79.4377,280.6955,0,U,45133,999,30597,-.16783E-2,-.573E-5,0
ONEWEB-0021,2020-008D,2026-05-30T02:48:38.634912,13.10376556,.0001815,87.8853,39.8810,76.6190,283.5140,0,U,45134,999,30628,-.10192E-2,-.343E-5,0
ONEWEB-0023,2020-008F,2026-05-30T03:04:11.983008,13.10377307,.0001945,87.8859,39.8599,80.1332,280.0015,0,U,45136,999,30571,.69574E-3,.256E-5,0
