STARLINK-1080           
1 44961U 20001AZ  26149.68935026  .00055225  00000+0  51863-3 0  9992
2 44961  53.0462 256.8668 0001570  33.0047 327.1065 15.66639176353271
STARLINK-1090           
1 44968U 20001BG  26150.15505969  .00092376  00000+0  16529-2 0  9999
2 44968  53.1501 283.3450 0002698 316.0279  44.0515 15.49245899352955
TJS-5                   
1 44978U 20002A   26150.02534725 -.00000330  00000+0  00000+0 0  9993
2 44978   0.0537 277.0693 0007339 127.0406 320.0732  1.00270235 23524
JILIN-1 KUANFU 01       
1 45016U 20003A   26150.13647468  .00004186  00000+0  25693-3 0  9990
2 45016  97.5038 224.4449 0009886  14.8216 345.3302 15.10612019352604
YINHE-1                 
1 45024U 20004A   26150.20837791  .00000665  00000+0  86118-4 0  9996
2 45024  86.3917 123.6150 0015889  66.9535 293.3359 14.79108626343260
GSAT-30                 
1 45026U 20005A   26150.16309755 -.00000153  00000+0  00000+0 0  9992
2 45026   0.0508 124.4809 0003583 312.4249 312.5151  1.00271662 23327
EUTELSAT KONNECT        
1 45027U 20005B   26149.22123770  .00000060  00000+0  00000+0 0  9995
2 45027   0.0720  99.8405 0000737 148.3822  85.3843  1.00271640 24142
STARLINK-1132           
1 45044U 20006A   26149.64402389  .00071782  00000+0  10834-2 0  9995
2 45044  53.1522 227.1546 0002924 359.5304   0.5704 15.54123347349478
STARLINK-1131           
1 45047U 20006D   26149.63929979  .00059774  00000+0  10145-2 0  9998
2 45047  53.1585 259.7990 0003715 333.1456  26.9361 15.50932943349016
STARLINK-1134           
1 45048U 20006E   26150.16667236  .00137833  00000+0  19156-2 0  9998
2 45048  53.0259 207.5929 0008187  31.6906 328.4596 15.56024727349776
STARLINK-1156           
1 45054U 20006L   26149.61760224  .00048556  00000+0  14503-2 0  9998
2 45054  53.1585 264.3853 0003148 328.3109  31.7704 15.34150242348947
STARLINK-1166           
1 45060U 20006S   26150.18057291  .00109652  00000+0  14292-2 0  9992
2 45060  53.0462 240.6205 0004589 337.5312  22.5497 15.57893568349312
STARLINK-1169           
1 45061U 20006T   26149.54129499  .00053670  00000+0  14480-2 0  9998
2 45061  53.1554 263.5420 0003893 291.5079  68.5509 15.37285116348950
STARLINK-1171           
1 45062U 20006U   26149.57757007  .00071804  00000+0  51608-3 0  9997
2 45062  53.0403 210.4691 0002695 332.0875  27.9998 15.72991776349685
STARLINK-1133           
1 45064U 20006W   26149.65374208  .00046819  00000+0  13984-2 0  9998
2 45064  53.1580 240.9941 0004141 338.8746  21.2085 15.34163267349283
STARLINK-1167           
1 45071U 20006AD  26149.54042096  .00049373  00000+0  13694-2 0  9997
2 45071  53.1568 240.7469 0003069 291.3922  68.6754 15.36466461349278
STARLINK-1168           
1 45072U 20006AE  26149.63426636  .00046464  00000+0  13830-2 0  9994
2 45072  53.1576 241.2908 0003560 341.4873  18.5999 15.34277702349271
STARLINK-1172           
1 45074U 20006AG  26150.25002315  .00071294  00000+0  18975-2 0  9994
2 45074  53.1550 236.8180 0003172 308.3650 222.9137 15.37580846  5779
STARLINK-1153           
1 45080U 20006AN  26149.65385836  .00048386  00000+0  13413-2 0  9993
2 45080  53.1584 240.1294 0004239 304.8764  55.1840 15.36488209349293
STARLINK-1151           
1 45081U 20006AP  26149.43923596  .00094299  00000+0  58220-3 0  9991
2 45081  53.0483 200.0849 0004107 342.7397  17.3482 15.76387254349811
STARLINK-1185           
1 45087U 20006AV  26150.16820333  .00065433  00000+0  13678-2 0  9999
2 45087  53.1583 218.3558 0005495 349.7261  10.3633 15.44891697349644
STARLINK-1183           
1 45088U 20006AW  26150.19902317  .00058808  00000+0  17520-2 0  9994
2 45088  53.1588 223.2546 0004254 348.4710  11.6195 15.34140515349573
STARLINK-1152           
1 45096U 20006BE  26150.06573061  .00070224  00000+0  13319-2 0  9997
2 45096  53.0334 179.8156 0004536  36.0218 324.1094 15.47693886350153
STARLINK-1184           
1 45098U 20006BG  26149.56502043  .00025204  00000+0  13903-2 0  9991
2 45098  53.0511 239.0947 0004130  12.5375 347.5719 15.13829841349271
STARLINK-1193           
1 45100U 20006BJ  26150.10071961  .00058364  00000+0  54115-3 0  9991
2 45100  53.0459 192.6765 0004237 316.7735  43.2947 15.66925482349971
ONEWEB-0013             
1 45131U 20008A   26150.13707767 -.00000285  00000+0 -86489-3 0  9990
2 45131  87.8527  56.4657 0002769  70.1509 289.9916 13.09451153303701
ONEWEB-0017             
1 45132U 20008B   26150.13206784  .00000502  00000+0  14012-2 0  9996
2 45132  87.8854  39.8636 0001560  79.7416 280.3887 13.10377057305589
ONEWEB-0020             
1 45133U 20008C   26150.10217314 -.00000573  00000+0 -16783-2 0  9992
2 45133  87.8855  39.8674 0001818  79.4377 280.6955 13.10371697305978
ONEWEB-0021             
1 45134U 20008D   26150.11711383 -.00000343  00000+0 -10192-2 0  9992
2 45134  87.8853  39.8810 0001815  76.6190 283.5140 13.10376556306280
ONEWEB-0023             
1 45136U 20008F   26150.12791647  .00000256  00000+0  69574-3 0  9996
2 45136  87.8859  39.8599 0001945  80.1332 280.0015 13.10377307305719
